[
  {
    "OBJECT_NAME": "STARLINK-4358",
    "OBJECT_ID": "22084AN",
    "EPOCH": "2025-11-11T03:21:00.929376",
    "MEAN_MOTION": 15.05650456,
    "ECCENTRICITY": 0.0001316,
    "INCLINATION": 97.6036,
    "RA_OF_ASC_NODE": 14.3175,
    "ARG_OF_PERICENTER": 88.0678,
    "MEAN_ANOMALY": 272.07,
    "EPHEMERIS_TYPE": 0,
    "CLASSIFICATION_TYPE": "U",
    "NORAD_CAT_ID": 53225,
    "ELEMENT_SET_NO": 999,
    "REV_AT_EPOCH": 18154,
    "BSTAR": 0.00012675,
    "MEAN_MOTION_DOT": 1.769e-05,
    "MEAN_MOTION_DDOT": 0.0,
    "TLE_LINE1": "1 53225U 22084AN  25315.13959409  .00001769  00000+0  12675-3 0  9995",
    "TLE_LINE2": "2 53225  97.6036  14.3175 0001316  88.0678 272.0700 15.05650456181543",
    "COMMENT": "Grouped by shell and plane from TLE"
  },
  {
    "OBJECT_NAME": "STARLINK-4359",
    "OBJECT_ID": "22084AP",
    "EPOCH": "2025-11-11T03:34:40.963008",
    "MEAN_MOTION": 15.01264572,
    "ECCENTRICITY": 0.0001401,
    "INCLINATION": 97.6032,
    "RA_OF_ASC_NODE": 14.1586,
    "ARG_OF_PERICENTER": 211.8537,
    "MEAN_ANOMALY": 148.2603,
    "EPHEMERIS_TYPE": 0,
    "CLASSIFICATION_TYPE": "U",
    "NORAD_CAT_ID": 53226,
    "ELEMENT_SET_NO": 999,
    "REV_AT_EPOCH": 18153,
    "BSTAR": 0.0,
    "MEAN_MOTION_DOT": -2.51e-06,
    "MEAN_MOTION_DDOT": 0.0,
    "TLE_LINE1": "1 53226U 22084AP  25315.14908522 -.00000251  00000+0 -14987-4 0  9993",
    "TLE_LINE2": "2 53226  97.6032  14.1586 0001401 211.8537 148.2603 15.01264572181530",
    "COMMENT": "Grouped by shell and plane from TLE"
  },
  {
    "OBJECT_NAME": "STARLINK-4366",
    "OBJECT_ID": "22084AQ",
    "EPOCH": "2025-11-11T02:53:06.352224",
    "MEAN_MOTION": 15.05652493,
    "ECCENTRICITY": 0.0001073,
    "INCLINATION": 97.6057,
    "RA_OF_ASC_NODE": 14.3161,
    "ARG_OF_PERICENTER": 94.953,
    "MEAN_ANOMALY": 265.1819,
    "EPHEMERIS_TYPE": 0,
    "CLASSIFICATION_TYPE": "U",
    "NORAD_CAT_ID": 53227,
    "ELEMENT_SET_NO": 999,
    "REV_AT_EPOCH": 18154,
    "BSTAR": 0.00010598000000000001,
    "MEAN_MOTION_DOT": 1.469e-05,
    "MEAN_MOTION_DDOT": 0.0,
    "TLE_LINE1": "1 53227U 22084AQ  25315.12021241  .00001469  00000+0  10598-3 0  9999",
    "TLE_LINE2": "2 53227  97.6057  14.3161 0001073  94.9530 265.1819 15.05652493181543",
    "COMMENT": "Grouped by shell and plane from TLE"
  },
  {
    "OBJECT_NAME": "STARLINK-4365",
    "OBJECT_ID": "22084AR",
    "EPOCH": "2025-11-11T03:40:01.198560",
    "MEAN_MOTION": 15.01261957,
    "ECCENTRICITY": 4e-05,
    "INCLINATION": 97.6035,
    "RA_OF_ASC_NODE": 14.15,
    "ARG_OF_PERICENTER": 172.6016,
    "MEAN_ANOMALY": 187.5214,
    "EPHEMERIS_TYPE": 0,
    "CLASSIFICATION_TYPE": "U",
    "NORAD_CAT_ID": 53228,
    "ELEMENT_SET_NO": 999,
    "REV_AT_EPOCH": 18153,
    "BSTAR": 0.00010581,
    "MEAN_MOTION_DOT": 1.301e-05,
    "MEAN_MOTION_DDOT": 0.0,
    "TLE_LINE1": "1 53228U 22084AR  25315.15279165  .00001301  00000+0  10581-3 0  9990",
    "TLE_LINE2": "2 53228  97.6035  14.1500 0000400 172.6016 187.5214 15.01261957181533",
    "COMMENT": "Grouped by shell and plane from TLE"
  },
  {
    "OBJECT_NAME": "STARLINK-4367",
    "OBJECT_ID": "22084AS",
    "EPOCH": "2025-11-11T03:01:05.041056",
    "MEAN_MOTION": 15.05651914,
    "ECCENTRICITY": 0.0001175,
    "INCLINATION": 97.6061,
    "RA_OF_ASC_NODE": 14.3262,
    "ARG_OF_PERICENTER": 88.6355,
    "MEAN_ANOMALY": 271.5006,
    "EPHEMERIS_TYPE": 0,
    "CLASSIFICATION_TYPE": "U",
    "NORAD_CAT_ID": 53229,
    "ELEMENT_SET_NO": 999,
    "REV_AT_EPOCH": 18154,
    "BSTAR": 5.9319e-05,
    "MEAN_MOTION_DOT": 7.95e-06,
    "MEAN_MOTION_DDOT": 0.0,
    "TLE_LINE1": "1 53229U 22084AS  25315.12575279  .00000795  00000+0  59319-4 0  9992",
    "TLE_LINE2": "2 53229  97.6061  14.3262 0001175  88.6355 271.5006 15.05651914181546",
    "COMMENT": "Grouped by shell and plane from TLE"
  },
  {
    "OBJECT_NAME": "STARLINK-4364",
    "OBJECT_ID": "22084AT",
    "EPOCH": "2025-11-11T04:04:53.178816",
    "MEAN_MOTION": 15.05655612,
    "ECCENTRICITY": 0.0001653,
    "INCLINATION": 97.6034,
    "RA_OF_ASC_NODE": 14.428,
    "ARG_OF_PERICENTER": 104.627,
    "MEAN_ANOMALY": 255.5141,
    "EPHEMERIS_TYPE": 0,
    "CLASSIFICATION_TYPE": "U",
    "NORAD_CAT_ID": 53230,
    "ELEMENT_SET_NO": 999,
    "REV_AT_EPOCH": 18155,
    "BSTAR": 0.0,
    "MEAN_MOTION_DOT": -4.81e-06,
    "MEAN_MOTION_DDOT": 0.0,
    "TLE_LINE1": "1 53230U 22084AT  25315.17005994 -.00000481  00000+0 -29100-4 0  9990",
    "TLE_LINE2": "2 53230  97.6034  14.4280 0001653 104.6270 255.5141 15.05655612181557",
    "COMMENT": "Grouped by shell and plane from TLE"
  },
  {
    "OBJECT_NAME": "STARLINK-4370",
    "OBJECT_ID": "22084AU",
    "EPOCH": "2025-11-11T04:20:50.319744",
    "MEAN_MOTION": 15.05650577,
    "ECCENTRICITY": 0.0001423,
    "INCLINATION": 97.6045,
    "RA_OF_ASC_NODE": 14.3971,
    "ARG_OF_PERICENTER": 86.5232,
    "MEAN_ANOMALY": 273.6158,
    "EPHEMERIS_TYPE": 0,
    "CLASSIFICATION_TYPE": "U",
    "NORAD_CAT_ID": 53231,
    "ELEMENT_SET_NO": 999,
    "REV_AT_EPOCH": 18155,
    "BSTAR": 0.00014966,
    "MEAN_MOTION_DOT": 2.099e-05,
    "MEAN_MOTION_DDOT": 0.0,
    "TLE_LINE1": "1 53231U 22084AU  25315.18113796  .00002099  00000+0  14966-3 0  9990",
    "TLE_LINE2": "2 53231  97.6045  14.3971 0001423  86.5232 273.6158 15.05650577181551",
    "COMMENT": "Grouped by shell and plane from TLE"
  },
  {
    "OBJECT_NAME": "STARLINK-4371",
    "OBJECT_ID": "22084AV",
    "EPOCH": "2025-11-11T03:29:21.647616",
    "MEAN_MOTION": 15.01269147,
    "ECCENTRICITY": 0.0002602,
    "INCLINATION": 97.6036,
    "RA_OF_ASC_NODE": 14.1414,
    "ARG_OF_PERICENTER": 193.2261,
    "MEAN_ANOMALY": 166.8895,
    "EPHEMERIS_TYPE": 0,
    "CLASSIFICATION_TYPE": "U",
    "NORAD_CAT_ID": 53232,
    "ELEMENT_SET_NO": 999,
    "REV_AT_EPOCH": 18153,
    "BSTAR": 0.00016169,
    "MEAN_MOTION_DOT": 2.02e-05,
    "MEAN_MOTION_DDOT": 0.0,
    "TLE_LINE1": "1 53232U 22084AV  25315.14538944  .00002020  00000+0  16169-3 0  9994",
    "TLE_LINE2": "2 53232  97.6036  14.1414 0002602 193.2261 166.8895 15.01269147181534",
    "COMMENT": "Grouped by shell and plane from TLE"
  },
  {
    "OBJECT_NAME": "STARLINK-4372",
    "OBJECT_ID": "22084AW",
    "EPOCH": "2025-11-11T03:21:44.058528",
    "MEAN_MOTION": 15.01238526,
    "ECCENTRICITY": 0.0003059,
    "INCLINATION": 97.6043,
    "RA_OF_ASC_NODE": 14.1396,
    "ARG_OF_PERICENTER": 179.7027,
    "MEAN_ANOMALY": 180.42,
    "EPHEMERIS_TYPE": 0,
    "CLASSIFICATION_TYPE": "U",
    "NORAD_CAT_ID": 53233,
    "ELEMENT_SET_NO": 999,
    "REV_AT_EPOCH": 18153,
    "BSTAR": 1.523e-05,
    "MEAN_MOTION_DOT": 1.37e-06,
    "MEAN_MOTION_DDOT": 0.0,
    "TLE_LINE1": "1 53233U 22084AW  25315.14009327  .00000137  00000+0  15230-4 0  9999",
    "TLE_LINE2": "2 53233  97.6043  14.1396 0003059 179.7027 180.4200 15.01238526181537",
    "COMMENT": "Grouped by shell and plane from TLE"
  },
  {
    "OBJECT_NAME": "STARLINK-4368",
    "OBJECT_ID": "22084AX",
    "EPOCH": "2025-11-11T03:24:01.297152",
    "MEAN_MOTION": 15.01261018,
    "ECCENTRICITY": 0.0003068,
    "INCLINATION": 97.6037,
    "RA_OF_ASC_NODE": 14.1335,
    "ARG_OF_PERICENTER": 184.4923,
    "MEAN_ANOMALY": 175.6274,
    "EPHEMERIS_TYPE": 0,
    "CLASSIFICATION_TYPE": "U",
    "NORAD_CAT_ID": 53234,
    "ELEMENT_SET_NO": 999,
    "REV_AT_EPOCH": 18254,
    "BSTAR": 2.0810000000000002e-05,
    "MEAN_MOTION_DOT": 2.09e-06,
    "MEAN_MOTION_DDOT": 0.0,
    "TLE_LINE1": "1 53234U 22084AX  25315.14168168  .00000209  00000+0  20810-4 0  9999",
    "TLE_LINE2": "2 53234  97.6037  14.1335 0003068 184.4923 175.6274 15.01261018182543",
    "COMMENT": "Grouped by shell and plane from TLE"
  },
  {
    "OBJECT_NAME": "STARLINK-4056",
    "OBJECT_ID": "22086A",
    "EPOCH": "2025-11-11T04:48:13.686624",
    "MEAN_MOTION": 15.08819543,
    "ECCENTRICITY": 0.0001432,
    "INCLINATION": 53.2193,
    "RA_OF_ASC_NODE": 11.0313,
    "ARG_OF_PERICENTER": 97.4256,
    "MEAN_ANOMALY": 262.6899,
    "EPHEMERIS_TYPE": 0,
    "CLASSIFICATION_TYPE": "U",
    "NORAD_CAT_ID": 53242,
    "ELEMENT_SET_NO": 999,
    "REV_AT_EPOCH": 18342,
    "BSTAR": 0.00022257,
    "MEAN_MOTION_DOT": 3.254e-05,
    "MEAN_MOTION_DDOT": 0.0,
    "TLE_LINE1": "1 53242U 22086A   25315.20015841  .00003254  00000+0  22257-3 0  9995",
    "TLE_LINE2": "2 53242  53.2193  11.0313 0001432  97.4256 262.6899 15.08819543183427",
    "COMMENT": "Grouped by shell and plane from TLE"
  },
  {
    "OBJECT_NAME": "STARLINK-4047",
    "OBJECT_ID": "22086B",
    "EPOCH": "2025-11-11T04:07:46.014240",
    "MEAN_MOTION": 15.08840609,
    "ECCENTRICITY": 0.0001428,
    "INCLINATION": 53.2168,
    "RA_OF_ASC_NODE": 15.8569,
    "ARG_OF_PERICENTER": 93.5003,
    "MEAN_ANOMALY": 266.6152,
    "EPHEMERIS_TYPE": 0,
    "CLASSIFICATION_TYPE": "U",
    "NORAD_CAT_ID": 53243,
    "ELEMENT_SET_NO": 999,
    "REV_AT_EPOCH": 18337,
    "BSTAR": 9.6764e-05,
    "MEAN_MOTION_DOT": 1.252e-05,
    "MEAN_MOTION_DDOT": 0.0,
    "TLE_LINE1": "1 53243U 22086B   25315.17206035  .00001252  00000+0  96764-4 0  9990",
    "TLE_LINE2": "2 53243  53.2168  15.8569 0001428  93.5003 266.6152 15.08840609183374",
    "COMMENT": "Grouped by shell and plane from TLE"
  },
  {
    "OBJECT_NAME": "STARLINK-4125",
    "OBJECT_ID": "22086C",
    "EPOCH": "2025-11-11T04:44:55.644864",
    "MEAN_MOTION": 15.08837005,
    "ECCENTRICITY": 0.0001394,
    "INCLINATION": 53.2191,
    "RA_OF_ASC_NODE": 16.1277,
    "ARG_OF_PERICENTER": 87.7805,
    "MEAN_ANOMALY": 272.3347,
    "EPHEMERIS_TYPE": 0,
    "CLASSIFICATION_TYPE": "U",
    "NORAD_CAT_ID": 53244,
    "ELEMENT_SET_NO": 999,
    "REV_AT_EPOCH": 18335,
    "BSTAR": 3.4000000000000007e-05,
    "MEAN_MOTION_DOT": 2.53e-06,
    "MEAN_MOTION_DDOT": 0.0,
    "TLE_LINE1": "1 53244U 22086C   25315.19786626  .00000253  00000+0  34000-4 0  9997",
    "TLE_LINE2": "2 53244  53.2191  16.1277 0001394  87.7805 272.3347 15.08837005183352",
    "COMMENT": "Grouped by shell and plane from TLE"
  }
]